{{Infobox Planet  
| name = 389 Industria
| image = 
| caption = 
| discovery=yes | physical_characteristics = yes | bgcolour=#FFFFC0
| discovery_ref = 
| discoverer = [[奥古斯特·沙卢瓦|奥古斯特·沙卢瓦]]
| discovery_site = [[尼斯|尼斯]]
| discovered =  1894年3月8日
| mp_name = 389
| alt_names = 1894 BB
| named_after = 勤奋
| mp_category=[[小行星带|主带小行星]]
| orbit_ref = <ref>[http://ssd.jpl.nasa.gov/sbdb.cgi?sstr=389 389 Industria (1894 BB)]</ref>
| epoch = 2011年8月27日
| semimajor= 2.607297332002036AU
| perihelion=2.433494882874933AU
| aphelion=2.781099781129138[[天文单位|AU]]
| eccentricity =0.06666000344258666	
| period =1537.744800453825[[日|地球日]]<br>4.21[[年|地球年]] 
| inclination=8.123480992118676[[角度|°]]
| asc_node=282.3873190234854°	
| arg_peri=265.9182370761442°
| mean_anomaly=286.670712238586°
| avg_speed=18.44 km/s
 | dimensions=79.23千米
 | mass=
 | density=
 | surface_grav=
 | escape_velocity=
 | rotation=8.53[[小时|小时]]
 | spectral_type=[[S-型小行星|S]]
 | magnitude=
 | abs_magnitude=7.88
 | albedo=0.1983
 | single_temperature=
}}
'''小行星389'''（'''389 Industria'''），是由[[法国|法国]][[天文学家|天文学家]][[奥古斯特·沙卢瓦|奥古斯特·沙卢瓦]]于1894年3月8日在法国[[尼斯|尼斯]]发现的[[小行星带|主带]][[小行星|小行星]]。

小行星389以勤奋的拉丁文命名。

== 参考资料 ==
{{Reflist}}

{{Minor Planet Number|(388)[[小行星388|小行星388]]|(390)[[小行星390|小行星390]]}}

[[Category:小行星带天体|Category:小行星带天体]]
[[Category:1894年发现的小行星|Category:1894年发现的小行星]]
[[Category:S-型小行星|Category:S-型小行星]]